NORAD_CAT_ID,OBJECT_NAME,OBJECT_TYPE,EPOCH,MEAN_MOTION,ECCENTRICITY,INCLINATION,RA_OF_ASC_NODE,ARG_OF_PERICENTER,MEAN_ANOMALY,BSTAR,MEAN_MOTION_DOT,MEAN_MOTION_DDOT,TLE_LINE0,TLE_LINE1,TLE_LINE2,SEMIMAJOR_AXIS,PERIOD,APOGEE,PERIGEE,DECAYED
55284.0,STARLINK-5337,PAYLOAD,2023-02-19 06:00:00,15.69887353,0.0003555,70.0017,342.5518,271.9029,320.5839,0.00031807,0.0003815,0.0,0 STARLINK-5337,1 55284U 23010R   23050.25001157  .00038150  00000-0  31807-3 0  9990,2 55284  70.0017 342.5518 0003555 271.9029 320.5839 15.69887353  5333,6737.356,91.726,361.616,356.826,0.0
55284.0,STARLINK-5337,PAYLOAD,2023-02-19 14:00:01,15.69865986,0.0003585,70.0015,341.6147,264.1978,51.6127,0.00081145,0.00098274,0.0,0 STARLINK-5337,1 55284U 23010R   23050.58334491  .00098274  00000-0  81145-3 0  9999,2 55284  70.0015 341.6147 0003585 264.1978  51.6127 15.69865986  1302,6737.417,91.728,361.698,356.867,0.0
55284.0,STARLINK-5337,PAYLOAD,2023-02-20 10:00:00,15.69941777,0.0003559,70.0013,339.2719,270.8982,73.2352,-0.00045478,-0.00054585,0.0,0 STARLINK-5337,1 55284U 23010R   23051.41667824 -.00054585  00000-0 -45478-3 0  9999,2 55284  70.0013 339.2719 0003559 270.8982  73.2352 15.69941777  5518,6737.201,91.723,361.463,356.668,0.0
55284.0,STARLINK-5337,PAYLOAD,2023-02-20 14:00:01,15.69860513,0.0003597,70.0016,338.8033,266.8136,299.0006,0.00078129,0.0009455,0.0,0 STARLINK-5337,1 55284U 23010R   23051.58334491  .00094550  00000-0  78129-3 0  9991,2 55284  70.0016 338.8033 0003597 266.8136 299.0006 15.69860513  1308,6737.433,91.728,361.722,356.875,0.0
55284.0,STARLINK-5337,PAYLOAD,2023-02-21 00:00:00,15.6996375,0.0003662,70.0019,337.6322,268.0373,131.901,-0.00039696,-0.00047755,0.0,0 STARLINK-5337,1 55284U 23010R   23052.00001157 -.00047755  00000-0 -39696-3 0  9992,2 55284  70.0019 337.6322 0003662 268.0373 131.9010 15.69963750  5602,6737.138,91.722,361.47,356.536,0.0
55284.0,STARLINK-5337,PAYLOAD,2023-02-21 04:25:06,15.69956428,0.0003647,70.0015,337.1142,264.7349,95.343,0.00062163,0.00075311,0.0,0 STARLINK-5337,1 55284U 23010R   23052.18410288  .00075311  00000-0  62163-3 0  9992,2 55284  70.0015 337.1142 0003647 264.7349  95.3430 15.69956428  5638,6737.159,91.722,361.481,356.567,0.0
55284.0,STARLINK-5337,PAYLOAD,2023-02-21 13:35:37,15.69934797,0.0003712,70.0013,336.0396,270.9274,89.1496,0.00043332,0.00052242,0.0,0 STARLINK-5337,1 55284U 23010R   23052.56640196  .00052242  00000-0  43332-3 0  9992,2 55284  70.0013 336.0396 0003712 270.9274  89.1496 15.69934797  5698,6737.221,91.724,361.586,356.585,0.0
55284.0,STARLINK-5337,PAYLOAD,2023-02-21 19:42:37,15.69950849,0.0003696,70.0012,335.3236,269.702,90.3753,0.00021702,0.00025993,0.0,0 STARLINK-5337,1 55284U 23010R   23052.82126645  .00025993  00000-0  21702-3 0  9999,2 55284  70.0012 335.3236 0003696 269.7020  90.3753 15.69950849  5739,6737.175,91.723,361.53,356.55,0.0
55284.0,STARLINK-5337,PAYLOAD,2023-02-21 21:14:22,15.69941245,0.0003718,70.001,335.1442,272.2695,87.8075,0.00040047,0.00048255,0.0,0 STARLINK-5337,1 55284U 23010R   23052.88498374  .00048255  00000-0  40047-3 0  9995,2 55284  70.0010 335.1442 0003718 272.2695  87.8075 15.69941245  6050,6737.202,91.723,361.572,356.562,0.0
55284.0,STARLINK-5337,PAYLOAD,2023-02-22 04:53:08,15.69915683,0.0003209,70.0009,334.2482,279.6979,80.3854,0.0001098,0.00013005,0.0,0 STARLINK-5337,1 55284U 23010R   23053.20356862  .00013005  00000-0  10980-3 0  9995,2 55284  70.0009 334.2482 0003209 279.6979  80.3854 15.69915683  5793,6737.275,91.725,361.302,356.978,0.0
55284.0,STARLINK-5337,PAYLOAD,2023-02-22 21:42:24,15.69946147,0.0003472,70.0006,332.2777,277.8131,82.267,0.00049443,0.00059718,0.0,0 STARLINK-5337,1 55284U 23010R   23053.90445534  .00059718  00000-0  49443-3 0  9994,2 55284  70.0006 332.2777 0003472 277.8131  82.2670 15.69946147  6211,6737.188,91.723,361.392,356.714,0.0
55284.0,STARLINK-5337,PAYLOAD,2023-02-23 02:17:39,15.69971102,0.0003631,70.0007,331.7403,276.2855,83.7927,0.00057937,0.00070176,0.0,0 STARLINK-5337,1 55284U 23010R   23054.09560155  .00070176  00000-0  57937-3 0  9990,2 55284  70.0007 331.7403 0003631 276.2855  83.7927 15.69971102  5933,6737.117,91.721,361.428,356.535,0.0
55284.0,STARLINK-5337,PAYLOAD,2023-02-23 12:59:55,15.69945978,0.0003622,70.0004,330.4864,276.49,83.5883,0.00055188,0.00066739,0.0,0 STARLINK-5337,1 55284U 23010R   23054.54161934  .00066739  00000-0  55188-3 0  9998,2 55284  70.0004 330.4864 0003622 276.4900  83.5883 15.69945978  6000,6737.189,91.723,361.494,356.613,0.0
55284.0,STARLINK-5337,PAYLOAD,2023-02-23 19:06:56,15.69915411,0.0003348,70.0001,329.7701,279.7168,80.3649,0.00050521,0.00060955,0.0,0 STARLINK-5337,1 55284U 23010R   23054.79649007  .00060955  00000-0  50521-3 0  9997,2 55284  70.0001 329.7701 0003348 279.7168  80.3649 15.69915411  6357,6737.276,91.725,361.397,356.885,0.0
55284.0,STARLINK-5337,PAYLOAD,2023-02-23 20:38:41,15.69924612,0.0003491,70.0002,329.5907,277.1538,82.926,0.00047809,0.00057672,0.0,0 STARLINK-5337,1 55284U 23010R   23054.86020611  .00057672  00000-0  47809-3 0  9996,2 55284  70.0002 329.5907 0003491 277.1538  82.9260 15.69924612  6053,6737.25,91.724,361.467,356.763,0.0
55284.0,STARLINK-5337,PAYLOAD,2023-02-24 11:56:12,15.69938207,0.0003521,70.001,327.7994,235.7344,124.3518,0.00014776,0.00017602,0.0,0 STARLINK-5337,1 55284U 23010R   23055.49736816  .00017602  00000-0  14776-3 0  9993,2 55284  70.0010 327.7994 0003521 235.7344 124.3518 15.69938207  6464,6737.211,91.723,361.448,356.704,0.0
55284.0,STARLINK-5337,PAYLOAD,2023-02-24 18:03:13,15.69918446,0.0003909,70.0004,327.0829,265.021,95.0539,8.5342e-05,0.0001006,0.0,0 STARLINK-5337,1 55284U 23010R   23055.75224183  .00010060  00000-0  85342-4 0  9990,2 55284  70.0004 327.0829 0003909 265.0210  95.0539 15.69918446  6195,6737.267,91.725,361.766,356.499,0.0
55284.0,STARLINK-5337,PAYLOAD,2023-02-24 19:34:58,15.69918378,0.0003616,70.0001,326.9039,258.1055,101.9735,0.00010987,0.00013016,0.0,0 STARLINK-5337,1 55284U 23010R   23055.81595857  .00013016  00000-0  10987-3 0  9992,2 55284  70.0001 326.9039 0003616 258.1055 101.9735 15.69918378  6513,6737.268,91.725,361.569,356.696,0.0
55284.0,STARLINK-5337,PAYLOAD,2023-02-25 03:13:44,15.69946703,0.0003688,70.0,326.0071,259.1933,100.8848,0.0003929,0.00047344,0.0,0 STARLINK-5337,1 55284U 23010R   23056.13454222  .00047344  00000-0  39290-3 0  9997,2 55284  70.0000 326.0071 0003688 259.1933 100.8848 15.69946703  6251,6737.186,91.723,361.536,356.567,0.0
55284.0,STARLINK-5337,PAYLOAD,2023-02-25 12:24:15,15.69949046,0.0003387,69.9998,324.9336,266.7591,93.3217,0.00031077,0.0003736,0.0,0 STARLINK-5337,1 55284U 23010R   23056.51684079  .00037360  00000-0  31077-3 0  9996,2 55284  69.9998 324.9336 0003387 266.7591  93.3217 15.69949046  6311,6737.18,91.723,361.327,356.763,0.0
55284.0,STARLINK-5337,PAYLOAD,2023-02-25 18:31:15,15.69932932,0.000401,69.9996,324.215,269.2246,90.849,0.0001154,0.00013692,0.0,0 STARLINK-5337,1 55284U 23010R   23056.77170789  .00013692  00000-0  11540-3 0  9997,2 55284  69.9996 324.2150 0004010 269.2246  90.8490 15.69932932  6350,6737.226,91.724,361.793,356.389,0.0
55284.0,STARLINK-5337,PAYLOAD,2023-02-25 20:03:00,15.69939614,0.0003665,70.0001,324.0365,264.3297,95.7481,0.00017571,0.00020982,0.0,0 STARLINK-5337,1 55284U 23010R   23056.83542425  .00020982  00000-0  17571-3 0  9994,2 55284  70.0001 324.0365 0003665 264.3297  95.7481 15.69939614  6676,6737.207,91.723,361.541,356.603,0.0
55284.0,STARLINK-5337,PAYLOAD,2023-02-26 03:41:46,15.69958336,0.0003618,70.0002,323.1411,261.2398,98.8388,0.00038841,0.0004682,0.0,0 STARLINK-5337,1 55284U 23010R   23057.15400516  .00046820  00000-0  38841-3 0  9996,2 55284  70.0002 323.1411 0003618 261.2398  98.8388 15.69958336  6419,6737.153,91.722,361.456,356.581,0.0
55284.0,STARLINK-5337,PAYLOAD,2023-02-26 12:52:16,15.69936126,0.0003448,70.0013,322.0676,250.5391,109.5432,0.00016215,0.00019339,0.0,0 STARLINK-5337,1 55284U 23010R   23057.53630736  .00019339  00000-0  16215-3 0  9993,2 55284  70.0013 322.0676 0003448 250.5391 109.5432 15.69936126  6780,6737.217,91.723,361.405,356.759,0.0
55284.0,STARLINK-5337,PAYLOAD,2023-02-26 17:27:32,15.69912731,0.0003629,69.9999,321.5286,266.3703,93.7078,2.1062e-06,4e-07,0.0,0 STARLINK-5337,1 55284U 23010R   23057.72746144  .00000040  00000-0  21062-5 0  9992,2 55284  69.9999 321.5286 0003629 266.3703  93.7078 15.69912731  6500,6737.284,91.725,361.594,356.704,0.0
55284.0,STARLINK-5337,PAYLOAD,2023-02-26 23:34:33,15.6993374,0.0003563,69.9995,320.8117,263.8549,96.2241,0.00029254,0.00035125,0.0,0 STARLINK-5337,1 55284U 23010R   23057.98232868  .00035125  00000-0  29254-3 0  9994,2 55284  69.9995 320.8117 0003563 263.8549  96.2241 15.69933740  6545,6737.224,91.724,361.489,356.688,0.0
55284.0,STARLINK-5337,PAYLOAD,2023-02-27 02:38:03,15.69964699,0.0003495,69.9998,320.4532,264.2208,95.859,0.00063447,0.0007691,0.0,0 STARLINK-5337,1 55284U 23010R   23058.10976076  .00076910  00000-0  63447-3 0  9994,2 55284  69.9998 320.4532 0003495 264.2208  95.8590 15.69964699  6567,6737.135,91.722,361.355,356.645,0.0
55284.0,STARLINK-5337,PAYLOAD,2023-02-27 16:23:48,15.69994166,0.0002606,70.0022,318.8413,267.0416,93.0481,0.00065142,0.00079077,0.0,0 STARLINK-5337,1 55284U 23010R   23058.68320208  .00079077  00000-0  65142-3 0  9998,2 55284  70.0022 318.8413 0002606 267.0416  93.0481 15.69994166  6653,6737.051,91.72,360.671,357.16,0.0
55284.0,STARLINK-5337,PAYLOAD,2023-02-28 03:06:04,15.69947263,0.0004468,70.0,317.5877,270.8124,89.256,0.00035828,0.0004314,0.0,0 STARLINK-5337,1 55284U 23010R   23059.12921653  .00043140  00000-0  35828-3 0  9999,2 55284  70.0000 317.5877 0004468 270.8124  89.2560 15.69947263  6724,6737.185,91.723,362.06,356.04,0.0
55284.0,STARLINK-5337,PAYLOAD,2023-02-28 07:41:20,15.69908816,0.0002704,69.9995,317.0484,274.8674,85.2213,1.1906e-05,1.218e-05,0.0,0 STARLINK-5337,1 55284U 23010R   23059.32037682  .00001218  00000-0  11906-4 0  9993,2 55284  69.9995 317.0484 0002704 274.8674  85.2213 15.69908816  7068,6737.295,91.725,360.982,357.338,0.0
